GLOBALSTAR M063         
1 26081U 00008A   24273.51399598 -.00000041  00000+0  61005-3 0  9992
2 26081  51.9944  78.0836 0005000 162.1067 236.5156 11.86159612126648
GLOBALSTAR M062         
1 26082U 00008B   24273.59738994 -.00000018  00000+0  57550-3 0  9992
2 26082  51.9830 142.0891 0006282 280.1504 116.6079 12.43447265464203
GLOBALSTAR M060         
1 26083U 00008C   24273.51470003 -.00000102  00000+0 -11021-3 0  9997
2 26083  52.0021  65.4573 0002608 325.3223  77.7434 12.17644387120612
GLOBALSTAR M064         
1 26084U 00008D   24273.43398748 -.00000089  00000+0 -79890-4 0  9997
2 26084  52.0017 180.2001 0001027 303.6193  56.4542 11.88523061136094
GLOBALSTAR M069         
1 31573U 07020C   24273.39277194 -.00000053  00000+0  29238-3 0  9993
2 31573  51.9935 256.1889 0000481 336.5530 175.4339 12.58766062801600
GLOBALSTAR M071         
1 31576U 07020F   24273.43425927 -.00000070  00000+0  18744-3 0  9999
2 31576  52.0053 260.8445 0000751 294.5235 224.6401 12.62257947462805
